NORAD_CAT_ID,OBJECT_NAME,OBJECT_TYPE,EPOCH,MEAN_MOTION,ECCENTRICITY,INCLINATION,RA_OF_ASC_NODE,ARG_OF_PERICENTER,MEAN_ANOMALY,BSTAR,MEAN_MOTION_DOT,MEAN_MOTION_DDOT,TLE_LINE0,TLE_LINE1,TLE_LINE2,SEMIMAJOR_AXIS,PERIOD,APOGEE,PERIGEE,DECAYED
55965.0,STARLINK-5894,PAYLOAD,2023-05-30 21:16:54,15.69932755,0.0003552,69.9998,332.6636,271.7998,88.2791,4.823e-05,5.593e-05,0.0,0 STARLINK-5894,1 55965U 23037BD  23150.88674449  .00005593  00000-0  48230-4 0  9999,2 55965  69.9998 332.6636 0003552 271.7998  88.2791 15.69932755 11828,6737.226,91.724,361.484,356.698,0.0
55965.0,STARLINK-5894,PAYLOAD,2023-05-31 14:06:11,15.69927167,0.0003445,70.0,330.6928,272.2145,87.8656,1.7473e-05,1.889e-05,0.0,0 STARLINK-5894,1 55965U 23037BD  23151.58762907  .00001889  00000-0  17473-4 0  9993,2 55965  70.0000 330.6928 0003445 272.2145  87.8656 15.69927167 11936,6737.242,91.724,361.428,356.786,0.0
55965.0,STARLINK-5894,PAYLOAD,2023-05-31 21:44:57,15.69916674,0.0003389,69.9989,329.7966,272.4693,87.6115,-1.3826e-05,-1.874e-05,0.0,0 STARLINK-5894,1 55965U 23037BD  23151.90621659 -.00001874  00000-0 -13826-4 0  9991,2 55965  69.9989 329.7966 0003389 272.4693  87.6115 15.69916674 11981,6737.272,91.725,361.421,356.854,0.0
55965.0,STARLINK-5894,PAYLOAD,2023-06-01 05:23:42,15.69924361,0.0003594,69.9991,328.9008,273.0044,87.0741,8.4806e-06,8.07e-06,0.0,0 STARLINK-5894,1 55965U 23037BD  23152.22479758  .00000807  00000-0  84806-5 0  9998,2 55965  69.9991 328.9008 0003594 273.0044  87.0741 15.69924361 12035,6737.25,91.724,361.537,356.694,0.0
55965.0,STARLINK-5894,PAYLOAD,2023-06-02 13:30:30,15.69924273,0.0003704,69.9979,325.1366,270.5384,89.5387,4.6121e-06,3.42e-06,0.0,0 STARLINK-5894,1 55965U 23037BD  23153.56284885  .00000342  00000-0  46121-5 0  9993,2 55965  69.9979 325.1366 0003704 270.5384  89.5387 15.69924273 12247,6737.251,91.724,361.611,356.62,0.0
55965.0,STARLINK-5894,PAYLOAD,2023-06-02 18:05:45,15.69936343,0.000353,69.9986,324.6003,273.4102,86.669,3.6137e-05,4.137e-05,0.0,0 STARLINK-5894,1 55965U 23037BD  23153.75399472  .00004137  00000-0  36137-4 0  9994,2 55965  69.9986 324.6003 0003530 273.4102  86.6690 15.69936343 12611,6737.216,91.723,361.459,356.703,0.0
55965.0,STARLINK-5894,PAYLOAD,2023-06-02 21:09:15,15.6993197,0.0004489,69.9971,324.2414,274.4754,85.5929,3.0455e-05,3.452e-05,0.0,0 STARLINK-5894,1 55965U 23037BD  23153.88142927  .00003452  00000-0  30455-4 0  9995,2 55965  69.9971 324.2414 0004489 274.4754  85.5929 15.69931970 12293,6737.229,91.724,362.118,356.069,0.0
55965.0,STARLINK-5894,PAYLOAD,2023-06-03 10:55:02,15.69923564,0.0003985,69.9983,322.6326,272.1808,87.8931,1.6265e-05,1.743e-05,0.0,0 STARLINK-5894,1 55965U 23037BD  23154.45488442  .00001743  00000-0  16265-4 0  9998,2 55965  69.9983 322.6326 0003985 272.1808  87.8931 15.69923564 12721,6737.253,91.724,361.802,356.433,0.0
55965.0,STARLINK-5894,PAYLOAD,2023-06-03 13:58:32,15.69927191,0.0003995,70.0015,322.2747,272.4507,87.6231,3.1189e-05,3.54e-05,0.0,0 STARLINK-5894,1 55965U 23037BD  23154.58231696  .00003540  00000-0  31189-4 0  9998,2 55965  70.0015 322.2747 0003995 272.4507  87.6231 15.69927191 12409,6737.242,91.724,361.799,356.416,0.0
55965.0,STARLINK-5894,PAYLOAD,2023-06-03 20:05:32,15.69938769,0.0003481,70.0002,321.5575,266.3254,93.7543,5.7395e-05,6.698e-05,0.0,0 STARLINK-5894,1 55965U 23037BD  23154.83717948  .00006698  00000-0  57395-4 0  9999,2 55965  70.0002 321.5575 0003481 266.3254  93.7543 15.69938769 12448,6737.209,91.723,361.419,356.729,0.0
55965.0,STARLINK-5894,PAYLOAD,2023-06-04 14:26:34,15.69913955,0.000464,69.9995,319.4067,281.3074,78.76,-3.1543e-05,-4.004e-05,0.0,0 STARLINK-5894,1 55965U 23037BD  23155.60178364 -.00004004  00000-0 -31543-4 0  9996,2 55965  69.9995 319.4067 0004640 281.3074  78.7600 15.69913955 12563,6737.28,91.725,362.271,356.019,0.0
55965.0,STARLINK-5894,PAYLOAD,2023-06-04 19:01:49,15.69919601,0.0004034,69.9989,318.8673,269.9355,90.1378,-1.587e-05,-2.121e-05,0.0,0 STARLINK-5894,1 55965U 23037BD  23155.79293123 -.00002121  00000-0 -15870-4 0  9990,2 55965  69.9989 318.8673 0004034 269.9355  90.1378 15.69919601 12938,6737.264,91.724,361.847,356.411,0.0
55965.0,STARLINK-5894,PAYLOAD,2023-06-04 20:33:34,15.69919659,0.0003801,69.9997,318.6892,267.7809,92.2952,-1.4072e-05,-1.904e-05,0.0,0 STARLINK-5894,1 55965U 23037BD  23155.85664872 -.00001904  00000-0 -14072-4 0  9991,2 55965  69.9997 318.6892 0003801 267.7809  92.2952 15.69919659 12607,6737.264,91.724,361.69,356.568,0.0
55965.0,STARLINK-5894,PAYLOAD,2023-06-05 13:22:50,15.69927115,0.0003503,70.0006,316.7178,264.803,95.2766,2.7973e-05,3.152e-05,0.0,0 STARLINK-5894,1 55965U 23037BD  23156.55753341  .00003152  00000-0  27973-4 0  9998,2 55965  70.0006 316.7178 0003503 264.8030  95.2766 15.69927115 12714,6737.243,91.724,361.468,356.747,0.0
55965.0,STARLINK-5894,PAYLOAD,2023-06-05 21:01:36,15.69926851,0.0003376,70.0004,315.8211,265.086,94.995,7.6503e-05,8.997e-05,0.0,0 STARLINK-5894,1 55965U 23037BD  23156.87611968  .00008997  00000-0  76503-4 0  9996,2 55965  70.0004 315.8211 0003376 265.0860  94.9950 15.69926851 12764,6737.243,91.724,361.383,356.834,0.0
55965.0,STARLINK-5894,PAYLOAD,2023-06-06 09:15:37,15.69926143,0.0003349,69.9999,314.3888,266.1744,93.9069,4.2642e-05,4.918e-05,0.0,0 STARLINK-5894,1 55965U 23037BD  23157.38585429  .00004918  00000-0  42642-4 0  9991,2 55965  69.9999 314.3888 0003349 266.1744  93.9069 15.69926143 13182,6737.245,91.724,361.367,356.854,0.0
55965.0,STARLINK-5894,PAYLOAD,2023-06-06 18:26:08,15.69929468,0.0003379,70.0001,313.313,267.7696,92.3112,3.7712e-05,4.325e-05,0.0,0 STARLINK-5894,1 55965U 23037BD  23157.76815360  .00004325  00000-0  37712-4 0  9997,2 55965  70.0001 313.3130 0003379 267.7696  92.3112 15.69929468 12908,6737.236,91.724,361.377,356.824,0.0
55965.0,STARLINK-5894,PAYLOAD,2023-06-07 09:43:40,15.69923669,0.0003003,70.0009,311.523,256.7231,103.363,1.7489e-05,1.891e-05,0.0,0 STARLINK-5894,1 55965U 23037BD  23158.40532458  .00001891  00000-0  17489-4 0  9997,2 55965  70.0009 311.5230 0003003 256.7231 103.3630 15.69923669 13348,6737.252,91.724,361.141,357.094,0.0
55965.0,STARLINK-5894,PAYLOAD,2023-06-07 18:54:10,15.69927326,0.0003199,70.0,310.4487,274.2407,85.8423,2.139e-05,2.36e-05,0.0,0 STARLINK-5894,1 55965U 23037BD  23158.78762451  .00002360  00000-0  21390-4 0  9994,2 55965  70.0000 310.4487 0003199 274.2407  85.8423 15.69927326 13064,6737.242,91.724,361.262,356.952,0.0
55965.0,STARLINK-5894,PAYLOAD,2023-06-08 10:11:41,15.69928317,0.0003389,69.9998,308.654,275.9146,84.1663,2.1098e-05,2.325e-05,0.0,0 STARLINK-5894,1 55965U 23037BD  23159.42478934  .00002325  00000-0  21098-4 0  9992,2 55965  69.9998 308.6540 0003389 275.9146  84.1663 15.69928317 13503,6737.239,91.724,361.387,356.821,0.0
55965.0,STARLINK-5894,PAYLOAD,2023-06-08 11:43:26,15.69926307,0.0003715,69.9995,308.4745,274.1513,85.9258,1.5722e-05,1.678e-05,0.0,0 STARLINK-5894,1 55965U 23037BD  23159.48850618  .00001678  00000-0  15722-4 0  9998,2 55965  69.9995 308.4745 0003715 274.1513  85.9258 15.69926307 13176,6737.245,91.724,361.613,356.607,0.0
55965.0,STARLINK-5894,PAYLOAD,2023-06-08 13:15:12,15.69926941,0.0003714,69.9994,308.2954,274.1103,85.9668,1.7757e-05,1.923e-05,0.0,0 STARLINK-5894,1 55965U 23037BD  23159.55222273  .00001923  00000-0  17757-4 0  9999,2 55965  69.9994 308.2954 0003714 274.1103  85.9668 15.69926941 13189,6737.243,91.724,361.61,356.606,0.0
55965.0,STARLINK-5894,PAYLOAD,2023-06-09 10:39:43,15.69923412,0.0003543,70.0004,305.7908,268.3001,91.7789,5.8183e-06,4.87e-06,0.0,0 STARLINK-5894,1 55965U 23037BD  23160.44425666  .00000487  00000-0  58183-5 0  9993,2 55965  70.0004 305.7908 0003543 268.3001  91.7789 15.69923412 13322,6737.253,91.724,361.505,356.731,0.0
55965.0,STARLINK-5894,PAYLOAD,2023-06-09 12:11:28,15.69923773,0.0003532,70.0007,305.6109,267.5897,92.4894,9.9282e-06,9.81e-06,0.0,0 STARLINK-5894,1 55965U 23037BD  23160.50797346  .00000981  00000-0  99282-5 0  9991,2 55965  70.0007 305.6109 0003532 267.5897  92.4894 15.69923773 13672,6737.252,91.724,361.497,356.737,0.0
55965.0,STARLINK-5894,PAYLOAD,2023-06-09 19:50:14,15.6993661,0.0003192,69.9987,304.7128,273.8418,86.2413,4.2123e-05,4.858e-05,0.0,0 STARLINK-5894,1 55965U 23037BD  23160.82655623  .00004858  00000-0  42123-4 0  9995,2 55965  69.9987 304.7128 0003192 273.8418  86.2413 15.69936610 13726,6737.215,91.723,361.231,356.93,0.0
55965.0,STARLINK-5894,PAYLOAD,2023-06-10 09:36:00,15.69925972,0.0003667,69.9991,303.1021,273.7233,86.3543,2.9295e-05,3.311e-05,0.0,0 STARLINK-5894,1 55965U 23037BD  23161.40000704  .00003311  00000-0  29295-4 0  9992,2 55965  69.9991 303.1021 0003667 273.7233  86.3543 15.69925972 13811,6737.246,91.724,361.581,356.64,0.0
55965.0,STARLINK-5894,PAYLOAD,2023-06-10 14:11:16,15.6992701,0.0003736,69.9995,302.5657,276.3044,83.7726,4.1363e-05,4.764e-05,0.0,0 STARLINK-5894,1 55965U 23037BD  23161.59115760  .00004764  00000-0  41363-4 0  9994,2 55965  69.9995 302.5657 0003736 276.3044  83.7726 15.69927010 13504,6737.243,91.724,361.625,356.591,0.0
55965.0,STARLINK-5894,PAYLOAD,2023-06-11 13:07:33,15.69926942,0.0003585,69.9996,299.8782,277.3699,82.7089,2.4618e-05,2.749e-05,0.0,0 STARLINK-5894,1 55965U 23037BD  23162.54690995  .00002749  00000-0  24618-4 0  9993,2 55965  69.9996 299.8782 0003585 277.3699  82.7089 15.69926942 13651,6737.243,91.724,361.523,356.693,0.0
55965.0,STARLINK-5894,PAYLOAD,2023-06-11 19:14:33,15.69932663,0.0003618,69.9994,299.1616,277.1988,82.8796,3.1953e-05,3.632e-05,0.0,0 STARLINK-5894,1 55965U 23037BD  23162.80177451  .00003632  00000-0  31953-4 0  9991,2 55965  69.9994 299.1616 0003618 277.1988  82.8796 15.69932663 13691,6737.227,91.724,361.529,356.654,0.0
55965.0,STARLINK-5894,PAYLOAD,2023-06-12 15:07:20,15.69924579,0.0003615,69.9989,296.8333,275.8849,84.1934,1.0049e-05,9.96e-06,0.0,0 STARLINK-5894,1 55965U 23037BD  23163.63009390  .00000996  00000-0  10049-4 0  9992,2 55965  69.9989 296.8333 0003615 275.8849  84.1934 15.69924579 14162,6737.25,91.724,361.55,356.679,0.0
